0 METEOR 1-10 DEB
1 29193U 71120L   13280.82380464  .00021380  00000-0  27154-2 0  9247
2 29193 081.2261 113.7886 0010768 043.7220 316.4841 14.81521716414552
0 METEOR 1-10 DEB
1 29193U 71120L   13281.83686001  .00025085  00000-0  31811-2 0  9257
2 29193 081.2273 112.6795 0010909 039.9866 320.2146 14.81565820414704
0 METEOR 1-10 DEB
1 29193U 71120L   13282.51221194  .00041872  00000-0  52881-2 0  9264
2 29193 081.2263 111.9390 0010884 038.3469 321.8513 14.81649277414805
0 METEOR 1-10 DEB
1 29193U 71120L   13285.48348364  .00030644  00000-0  38615-2 0  9288
2 29193 081.2261 108.6863 0010791 028.3027 331.8767 14.81804112415249
0 METEOR 1-10 DEB
1 29193U 71120L   13286.83395185  .00033839  00000-0  42558-2 0  9292
2 29193 081.2248 107.2100 0010362 022.9820 337.1852 14.81871723415446
0 METEOR 1-10 DEB
1 29193U 71120L   13288.18434670  .00059692  00000-0  74617-2 0  9303
2 29193 081.2236 105.7273 0010168 014.2783 345.8713 14.81979428415648
0 METEOR 1-10 DEB
1 29193U 71120L   13288.45441616  .00052511  00000-0  65661-2 0  9314
2 29193 081.2249 105.4333 0010698 017.8332 342.3252 14.82005177415689
0 METEOR 1-10 DEB
1 29193U 71120L   13289.46712746  .00047129  00000-0  58865-2 0  9329
2 29193 081.2252 104.3248 0010744 013.8034 346.3468 14.82082710415831
0 METEOR 1-10 DEB
1 29193U 71120L   13290.74982551  .00052333  00000-0  65178-2 0  9334
2 29193 081.2272 102.9204 0010867 008.6466 351.4930 14.82170890416026
0 METEOR 1-10 DEB
1 29193U 71120L   13291.49240283  .00042673  00000-0  53144-2 0  9343
2 29193 081.2276 102.1074 0010928 005.5862 354.5468 14.82228729416138
0 METEOR 1-10 DEB
1 29193U 71120L   13292.50496419  .00040773  00000-0  50700-2 0  9355
2 29193 081.2256 100.9960 0011026 002.7494 357.3775 14.82302392416283
0 METEOR 1-10 DEB
1 29193U 71120L   13294.46244119  .00051471  00000-0  63697-2 0  9367
2 29193 081.2272 098.8506 0011206 358.0758 002.0408 14.82439461416579
